[{"OBJECT_NAME":"STARLINK-4018","OBJECT_ID":"2022-053AT","EPOCH":"2025-09-18T00:41:19.792320","MEAN_MOTION":15.08837848,"ECCENTRICITY":0.00015922,"INCLINATION":53.2161,"RA_OF_ASC_NODE":204.2277,"ARG_OF_PERICENTER":77.3008,"MEAN_ANOMALY":282.8162,"EPHEMERIS_TYPE":0,"CLASSIFICATION_TYPE":"U","NORAD_CAT_ID":52697,"ELEMENT_SET_NO":999,"REV_AT_EPOCH":18502,"BSTAR":4.4770903e-5,"MEAN_MOTION_DOT":4.25e-6,"MEAN_MOTION_DDOT":0},{"OBJECT_NAME":"STARLINK-4030","OBJECT_ID":"2022-053AU","EPOCH":"2025-09-18T00:55:50.548800","MEAN_MOTION":15.0885406,"ECCENTRICITY":0.00015579,"INCLINATION":53.2196,"RA_OF_ASC_NODE":204.1656,"ARG_OF_PERICENTER":83.1108,"MEAN_ANOMALY":277.0061,"EPHEMERIS_TYPE":0,"CLASSIFICATION_TYPE":"U","NORAD_CAT_ID":52698,"ELEMENT_SET_NO":999,"REV_AT_EPOCH":18501,"BSTAR":-0.00016404535,"MEAN_MOTION_DOT":-2.899e-5,"MEAN_MOTION_DDOT":0},{"OBJECT_NAME":"STARLINK-3987","OBJECT_ID":"2022-053AV","EPOCH":"2025-09-18T22:40:47.146368","MEAN_MOTION":15.08848062,"ECCENTRICITY":0.00016335,"INCLINATION":53.2161,"RA_OF_ASC_NODE":190.1423,"ARG_OF_PERICENTER":72.0482,"MEAN_ANOMALY":288.0688,"EPHEMERIS_TYPE":0,"CLASSIFICATION_TYPE":"U","NORAD_CAT_ID":52699,"ELEMENT_SET_NO":999,"REV_AT_EPOCH":18531,"BSTAR":-2.291072e-6,"MEAN_MOTION_DOT":-3.25e-6,"MEAN_MOTION_DDOT":0},{"OBJECT_NAME":"STARLINK-4034","OBJECT_ID":"2022-053AW","EPOCH":"2025-09-18T06:19:01.696512","MEAN_MOTION":15.08842501,"ECCENTRICITY":0.00014159,"INCLINATION":53.2157,"RA_OF_ASC_NODE":202.8171,"ARG_OF_PERICENTER":99.382,"MEAN_ANOMALY":260.7332,"EPHEMERIS_TYPE":0,"CLASSIFICATION_TYPE":"U","NORAD_CAT_ID":52700,"ELEMENT_SET_NO":999,"REV_AT_EPOCH":18506,"BSTAR":-1.8164634e-5,"MEAN_MOTION_DOT":-5.77e-6,"MEAN_MOTION_DDOT":0},{"OBJECT_NAME":"STARLINK-4033","OBJECT_ID":"2022-053AY","EPOCH":"2025-09-18T00:39:57.656160","MEAN_MOTION":15.08845572,"ECCENTRICITY":0.00017154,"INCLINATION":53.2166,"RA_OF_ASC_NODE":204.2596,"ARG_OF_PERICENTER":96.8863,"MEAN_ANOMALY":263.2324,"EPHEMERIS_TYPE":0,"CLASSIFICATION_TYPE":"U","NORAD_CAT_ID":52702,"ELEMENT_SET_NO":999,"REV_AT_EPOCH":18502,"BSTAR":6.5708555e-5,"MEAN_MOTION_DOT":7.58e-6,"MEAN_MOTION_DDOT":0},{"OBJECT_NAME":"STARLINK-4020","OBJECT_ID":"2022-053AZ","EPOCH":"2025-09-18T04:27:09.168192","MEAN_MOTION":15.08843512,"ECCENTRICITY":0.00014181,"INCLINATION":53.2166,"RA_OF_ASC_NODE":188.5368,"ARG_OF_PERICENTER":88.0363,"MEAN_ANOMALY":272.0792,"EPHEMERIS_TYPE":0,"CLASSIFICATION_TYPE":"U","NORAD_CAT_ID":52703,"ELEMENT_SET_NO":999,"REV_AT_EPOCH":18399,"BSTAR":3.9962727e-5,"MEAN_MOTION_DOT":3.48e-6,"MEAN_MOTION_DDOT":0},{"OBJECT_NAME":"STARLINK-3999","OBJECT_ID":"2022-053BA","EPOCH":"2025-09-18T22:17:35.318400","MEAN_MOTION":15.08838719,"ECCENTRICITY":0.0001398,"INCLINATION":53.2151,"RA_OF_ASC_NODE":185.1843,"ARG_OF_PERICENTER":89.7195,"MEAN_ANOMALY":270.3957,"EPHEMERIS_TYPE":0,"CLASSIFICATION_TYPE":"U","NORAD_CAT_ID":52704,"ELEMENT_SET_NO":999,"REV_AT_EPOCH":18538,"BSTAR":9.078506e-5,"MEAN_MOTION_DOT":1.157e-5,"MEAN_MOTION_DDOT":0},{"OBJECT_NAME":"STARLINK-3844","OBJECT_ID":"2022-053BB","EPOCH":"2025-09-18T04:32:26.825568","MEAN_MOTION":15.08843576,"ECCENTRICITY":0.00014229,"INCLINATION":53.2161,"RA_OF_ASC_NODE":188.5082,"ARG_OF_PERICENTER":86.1574,"MEAN_ANOMALY":273.9581,"EPHEMERIS_TYPE":0,"CLASSIFICATION_TYPE":"U","NORAD_CAT_ID":52705,"ELEMENT_SET_NO":999,"REV_AT_EPOCH":18527,"BSTAR":6.5231891e-5,"MEAN_MOTION_DOT":7.5e-6,"MEAN_MOTION_DDOT":0},{"OBJECT_NAME":"STARLINK-3970","OBJECT_ID":"2022-053BC","EPOCH":"2025-09-18T04:37:44.692032","MEAN_MOTION":15.08845022,"ECCENTRICITY":0.00014823,"INCLINATION":53.2173,"RA_OF_ASC_NODE":188.4903,"ARG_OF_PERICENTER":84.0738,"MEAN_ANOMALY":276.0424,"EPHEMERIS_TYPE":0,"CLASSIFICATION_TYPE":"U","NORAD_CAT_ID":52706,"ELEMENT_SET_NO":999,"REV_AT_EPOCH":18527,"BSTAR":2.8675194e-5,"MEAN_MOTION_DOT":1.68e-6,"MEAN_MOTION_DDOT":0},{"OBJECT_NAME":"STARLINK-4007","OBJECT_ID":"2022-053BD","EPOCH":"2025-09-18T04:05:57.234048","MEAN_MOTION":15.08743496,"ECCENTRICITY":0.00023334,"INCLINATION":53.2176,"RA_OF_ASC_NODE":188.4764,"ARG_OF_PERICENTER":109.3666,"MEAN_ANOMALY":250.7578,"EPHEMERIS_TYPE":0,"CLASSIFICATION_TYPE":"U","NORAD_CAT_ID":52707,"ELEMENT_SET_NO":999,"REV_AT_EPOCH":18533,"BSTAR":0.0012256719,"MEAN_MOTION_DOT":0.00019221,"MEAN_MOTION_DDOT":0},{"OBJECT_NAME":"STARLINK-3962","OBJECT_ID":"2022-053BE","EPOCH":"2025-09-18T22:38:47.256000","MEAN_MOTION":15.08828945,"ECCENTRICITY":0.00013834,"INCLINATION":53.2171,"RA_OF_ASC_NODE":185.1077,"ARG_OF_PERICENTER":96.8367,"MEAN_ANOMALY":263.2782,"EPHEMERIS_TYPE":0,"CLASSIFICATION_TYPE":"U","NORAD_CAT_ID":52708,"ELEMENT_SET_NO":999,"REV_AT_EPOCH":18559,"BSTAR":5.9747701e-5,"MEAN_MOTION_DOT":6.63e-6,"MEAN_MOTION_DDOT":0},{"OBJECT_NAME":"STARLINK-4091","OBJECT_ID":"2022-062A","EPOCH":"2025-09-18T19:46:35.835168","MEAN_MOTION":15.08835324,"ECCENTRICITY":0.00014211,"INCLINATION":53.2167,"RA_OF_ASC_NODE":85.848,"ARG_OF_PERICENTER":82.6062,"MEAN_ANOMALY":277.5092,"EPHEMERIS_TYPE":0,"CLASSIFICATION_TYPE":"U","NORAD_CAT_ID":52830,"ELEMENT_SET_NO":999,"REV_AT_EPOCH":17983,"BSTAR":3.1049314e-5,"MEAN_MOTION_DOT":2.06e-6,"MEAN_MOTION_DDOT":0},{"OBJECT_NAME":"STARLINK-4089","OBJECT_ID":"2022-062B","EPOCH":"2025-09-18T19:35:57.367680","MEAN_MOTION":15.08830528,"ECCENTRICITY":0.0001153,"INCLINATION":53.2169,"RA_OF_ASC_NODE":85.6932,"ARG_OF_PERICENTER":93.7419,"MEAN_ANOMALY":266.3705,"EPHEMERIS_TYPE":0,"CLASSIFICATION_TYPE":"U","NORAD_CAT_ID":52831,"ELEMENT_SET_NO":999,"REV_AT_EPOCH":17983,"BSTAR":-6.8977318e-5,"MEAN_MOTION_DOT":-1.385e-5,"MEAN_MOTION_DDOT":0},{"OBJECT_NAME":"STARLINK-4083","OBJECT_ID":"2022-062C","EPOCH":"2025-09-18T17:55:16.906944","MEAN_MOTION":15.08838678,"ECCENTRICITY":0.00013588,"INCLINATION":53.2166,"RA_OF_ASC_NODE":86.005,"ARG_OF_PERICENTER":96.6913,"MEAN_ANOMALY":263.4233,"EPHEMERIS_TYPE":0,"CLASSIFICATION_TYPE":"U","NORAD_CAT_ID":52832,"ELEMENT_SET_NO":999,"REV_AT_EPOCH":17982,"BSTAR":3.8297584e-5,"MEAN_MOTION_DOT":3.22e-6,"MEAN_MOTION_DDOT":0},{"OBJECT_NAME":"STARLINK-4086","OBJECT_ID":"2022-062D","EPOCH":"2025-09-18T17:49:58.891008","MEAN_MOTION":15.0883483,"ECCENTRICITY":0.00013161,"INCLINATION":53.2171,"RA_OF_ASC_NODE":86.018,"ARG_OF_PERICENTER":99.9301,"MEAN_ANOMALY":260.1839,"EPHEMERIS_TYPE":0,"CLASSIFICATION_TYPE":"U","NORAD_CAT_ID":52833,"ELEMENT_SET_NO":999,"REV_AT_EPOCH":17982,"BSTAR":9.3879308e-5,"MEAN_MOTION_DOT":1.206e-5,"MEAN_MOTION_DDOT":0},{"OBJECT_NAME":"STARLINK-4108","OBJECT_ID":"2022-062E","EPOCH":"2025-09-18T19:14:46.317408","MEAN_MOTION":15.08843907,"ECCENTRICITY":0.00016604,"INCLINATION":53.2169,"RA_OF_ASC_NODE":85.7549,"ARG_OF_PERICENTER":99.1578,"MEAN_ANOMALY":260.9602,"EPHEMERIS_TYPE":0,"CLASSIFICATION_TYPE":"U","NORAD_CAT_ID":52834,"ELEMENT_SET_NO":999,"REV_AT_EPOCH":17983,"BSTAR":-0.000372552,"MEAN_MOTION_DOT":-6.213e-5,"MEAN_MOTION_DDOT":0},{"OBJECT_NAME":"STARLINK-4080","OBJECT_ID":"2022-062F","EPOCH":"2025-09-18T17:34:04.786176","MEAN_MOTION":15.08839427,"ECCENTRICITY":0.00013465,"INCLINATION":53.2167,"RA_OF_ASC_NODE":86.0689,"ARG_OF_PERICENTER":90.5478,"MEAN_ANOMALY":269.5669,"EPHEMERIS_TYPE":0,"CLASSIFICATION_TYPE":"U","NORAD_CAT_ID":52835,"ELEMENT_SET_NO":999,"REV_AT_EPOCH":17982,"BSTAR":3.2420372e-5,"MEAN_MOTION_DOT":2.28e-6,"MEAN_MOTION_DDOT":0},{"OBJECT_NAME":"STARLINK-4043","OBJECT_ID":"2022-062G","EPOCH":"2025-09-18T19:48:00.091584","MEAN_MOTION":15.08843423,"ECCENTRICITY":0.00011542,"INCLINATION":53.2162,"RA_OF_ASC_NODE":85.9694,"ARG_OF_PERICENTER":89.3079,"MEAN_ANOMALY":270.8046,"EPHEMERIS_TYPE":0,"CLASSIFICATION_TYPE":"U","NORAD_CAT_ID":52836,"ELEMENT_SET_NO":999,"REV_AT_EPOCH":17983,"BSTAR":9.6716629e-5,"MEAN_MOTION_DOT":1.252e-5,"MEAN_MOTION_DDOT":0},{"OBJECT_NAME":"STARLINK-4036","OBJECT_ID":"2022-062H","EPOCH":"2025-09-18T18:53:33.879552","MEAN_MOTION":15.08841948,"ECCENTRICITY":0.00013658,"INCLINATION":53.2169,"RA_OF_ASC_NODE":85.8199,"ARG_OF_PERICENTER":93.5783,"MEAN_ANOMALY":266.5365,"EPHEMERIS_TYPE":0,"CLASSIFICATION_TYPE":"U","NORAD_CAT_ID":52837,"ELEMENT_SET_NO":999,"REV_AT_EPOCH":17983,"BSTAR":7.0571517e-5,"MEAN_MOTION_DOT":8.35e-6,"MEAN_MOTION_DDOT":0},{"OBJECT_NAME":"STARLINK-4092","OBJECT_ID":"2022-062J","EPOCH":"2025-09-18T18:58:51.984480","MEAN_MOTION":15.08839027,"ECCENTRICITY":0.00013637,"INCLINATION":53.2163,"RA_OF_ASC_NODE":85.7955,"ARG_OF_PERICENTER":83.1158,"MEAN_ANOMALY":276.999,"EPHEMERIS_TYPE":0,"CLASSIFICATION_TYPE":"U","NORAD_CAT_ID":52838,"ELEMENT_SET_NO":999,"REV_AT_EPOCH":17983,"BSTAR":2.5112449e-5,"MEAN_MOTION_DOT":1.12e-6,"MEAN_MOTION_DDOT":0},{"OBJECT_NAME":"STARLINK-4048","OBJECT_ID":"2022-062K","EPOCH":"2025-09-18T18:42:58.547520","MEAN_MOTION":15.08837173,"ECCENTRICITY":0.00013693,"INCLINATION":53.2166,"RA_OF_ASC_NODE":85.8599,"ARG_OF_PERICENTER":89.3276,"MEAN_ANOMALY":270.7873,"EPHEMERIS_TYPE":0,"CLASSIFICATION_TYPE":"U","NORAD_CAT_ID":52839,"ELEMENT_SET_NO":999,"REV_AT_EPOCH":17983,"BSTAR":2.5247983e-5,"MEAN_MOTION_DOT":1.14e-6,"MEAN_MOTION_DDOT":0},{"OBJECT_NAME":"STARLINK-4049","OBJECT_ID":"2022-062L","EPOCH":"2025-09-18T19:04:11.034624","MEAN_MOTION":15.0883899,"ECCENTRICITY":0.00013031,"INCLINATION":53.2167,"RA_OF_ASC_NODE":85.9032,"ARG_OF_PERICENTER":87.8301,"MEAN_ANOMALY":272.284,"EPHEMERIS_TYPE":0,"CLASSIFICATION_TYPE":"U","NORAD_CAT_ID":52840,"ELEMENT_SET_NO":999,"REV_AT_EPOCH":17983,"BSTAR":1.7113976e-5,"MEAN_MOTION_DOT":-1.6e-7,"MEAN_MOTION_DDOT":0},{"OBJECT_NAME":"STARLINK-4065","OBJECT_ID":"2022-062M","EPOCH":"2025-09-18T20:02:27.602016","MEAN_MOTION":15.08839685,"ECCENTRICITY":0.00012474,"INCLINATION":53.2172,"RA_OF_ASC_NODE":85.6085,"ARG_OF_PERICENTER":90.625,"MEAN_ANOMALY":269.4885,"EPHEMERIS_TYPE":0,"CLASSIFICATION_TYPE":"U","NORAD_CAT_ID":52841,"ELEMENT_SET_NO":999,"REV_AT_EPOCH":17984,"BSTAR":0.00010211855,"MEAN_MOTION_DOT":1.338e-5,"MEAN_MOTION_DDOT":0}]
